[{"OBJECT_NAME":"KUIPER-00137","OBJECT_ID":"2025-228S","EPOCH":"2026-03-09T22:00:01.999584","MEAN_MOTION":14.78448948,"ECCENTRICITY":0.00017475,"INCLINATION":51.9044,"RA_OF_ASC_NODE":344.5648,"ARG_OF_PERICENTER":152.1073,"MEAN_ANOMALY":242.2792,"EPHEMERIS_TYPE":0,"CLASSIFICATION_TYPE":"U","NORAD_CAT_ID":65963,"ELEMENT_SET_NO":999,"REV_AT_EPOCH":474,"BSTAR":-0.0032569559,"MEAN_MOTION_DOT":-0.00024103,"MEAN_MOTION_DDOT":0},{"OBJECT_NAME":"CZ-6A DEB","OBJECT_ID":"2022-151HR","EPOCH":"2026-03-09T16:52:36.250176","MEAN_MOTION":14.64023252,"ECCENTRICITY":0.0073958,"INCLINATION":98.6298,"RA_OF_ASC_NODE":123.1199,"ARG_OF_PERICENTER":253.9484,"MEAN_ANOMALY":105.3564,"EPHEMERIS_TYPE":0,"CLASSIFICATION_TYPE":"U","NORAD_CAT_ID":54489,"ELEMENT_SET_NO":999,"REV_AT_EPOCH":17491,"BSTAR":0.0020492656,"MEAN_MOTION_DOT":0.0001114,"MEAN_MOTION_DDOT":0}]
